{"type": "FeatureCollection", "features": [ {"type": "Feature", "properties": {"norad_id": 28649, "name": "IRS-P5 (CARTOSAT-1)", "group": "resource", "lat": -66.15133625003203, "lon": 40.613307305347355, "alt_km": 604.0507749562576, "timestamp": "2025-12-23T05:02:11.680074+00:00", "meta": {"OBJECT_NAME": "IRS-P5 (CARTOSAT-1)", "OBJECT_ID": "2005-017A", "EPOCH": "2025-12-22T19:40:14.057760", "MEAN_MOTION": 14.90436364, "ECCENTRICITY": 6.27e-05, "INCLINATION": 97.5483, "RA_OF_ASC_NODE": 22.7855, "ARG_OF_PERICENTER": 55.0541, "MEAN_ANOMALY": 305.0736, "EPHEMERIS_TYPE": 0, "CLASSIFICATION_TYPE": "U", "NORAD_CAT_ID": 28649, "ELEMENT_SET_NO": 999, "REV_AT_EPOCH": 11754, "BSTAR": 0.00015078676, "MEAN_MOTION_DOT": 1.417e-05, "MEAN_MOTION_DDOT": 0}, "tle": {"line1": "1 28649U 05017A   25356.81960715  .00001417  00000+0  15079-3 0  9997", "line2": "2 28649  97.5483  22.7855 0000627  55.0541 305.0736 14.90436364117543"}}, "geometry": {"type": "Point", "coordinates": [40.613307305347355, -66.15133625003203]}}, {"type": "Feature", "properties": {"norad_id": 28893, "name": "SINAH 1", "group": "resource", "lat": 10.636372751411725, "lon": 124.23176656467228, "alt_km": 682.9204598418537, "timestamp": "2025-12-23T05:02:11.680085+00:00", "meta": {"OBJECT_NAME": "SINAH 1", "OBJECT_ID": "2005-043D", "EPOCH": "2025-12-22T19:08:43.743264", "MEAN_MOTION": 14.63972432, "ECCENTRICITY": 0.00156902, "INCLINATION": 98.2609, "RA_OF_ASC_NODE": 125.3821, "ARG_OF_PERICENTER": 107.6503, "MEAN_ANOMALY": 252.6414, "EPHEMERIS_TYPE": 0, "CLASSIFICATION_TYPE": "U", "NORAD_CAT_ID": 28893, "ELEMENT_SET_NO": 999, "REV_AT_EPOCH": 7471, "BSTAR": 8.1550649e-05, "MEAN_MOTION_DOT": 3.79e-06, "MEAN_MOTION_DDOT": 0}, "tle": {"line1": "1 28893U 05043D   25356.79772851  .00000379  00000+0  81551-4 0  9991", "line2": "2 28893  98.2609 125.3821 0015690 107.6503 252.6414 14.63972432 74715"}}, "geometry": {"type": "Point", "coordinates": [124.23176656467228, 10.636372751411725]}}, {"type": "Feature", "properties": {"norad_id": 29079, "name": "EROS B", "group": "resource", "lat": 46.242553118080664, "lon": 106.56349186055964, "alt_km": 350.8255137100641, "timestamp": "2025-12-23T05:02:11.680096+00:00", "meta": {"OBJECT_NAME": "EROS B", "OBJECT_ID": "2006-014A", "EPOCH": "2025-12-22T22:43:32.108160", "MEAN_MOTION": 15.7147368, "ECCENTRICITY": 0.00039707, "INCLINATION": 97.3464, "RA_OF_ASC_NODE": 114.0304, "ARG_OF_PERICENTER": 310.5432, "MEAN_ANOMALY": 49.5485, "EPHEMERIS_TYPE": 0, "CLASSIFICATION_TYPE": "U", "NORAD_CAT_ID": 29079, "ELEMENT_SET_NO": 999, "REV_AT_EPOCH": 9240, "BSTAR": 0.0014111441, "MEAN_MOTION_DOT": 0.00183591, "MEAN_MOTION_DDOT": 0}, "tle": {"line1": "1 29079U 06014A   25356.94689940  .00183591  00000+0  14111-2 0  9994", "line2": "2 29079  97.3464 114.0304 0003970 310.5432  49.5485 15.71473680 92404"}}, "geometry": {"type": "Point", "coordinates": [106.56349186055964, 46.242553118080664]}}, {"type": "Feature", "properties": {"norad_id": 29228, "name": "RESURS-DK 1", "group": "resource", "lat": -29.342518260011193, "lon": 62.92248441703652, "alt_km": 533.9076381728464, "timestamp": "2025-12-23T05:02:11.680106+00:00", "meta": {"OBJECT_NAME": "RESURS-DK 1", "OBJECT_ID": "2006-021A", "EPOCH": "2025-12-22T11:42:44.959104", "MEAN_MOTION": 15.1221149, "ECCENTRICITY": 0.00068667, "INCLINATION": 69.9337, "RA_OF_ASC_NODE": 76.645, "ARG_OF_PERICENTER": 250.3556, "MEAN_ANOMALY": 109.6869, "EPHEMERIS_TYPE": 0, "CLASSIFICATION_TYPE": "U", "NORAD_CAT_ID": 29228, "ELEMENT_SET_NO": 999, "REV_AT_EPOCH": 7585, "BSTAR": 0.00015666054, "MEAN_MOTION_DOT": 2.606e-05, "MEAN_MOTION_DDOT": 0}, "tle": {"line1": "1 29228U 06021A   25356.48802036  .00002606  00000+0  15666-3 0  9994", "line2": "2 29228  69.9337  76.6450 0006866 250.3556 109.6869 15.12211490 75852"}}, "geometry": {"type": "Point", "coordinates": [62.92248441703652, -29.342518260011193]}}, {"type": "Feature", "properties": {"norad_id": 29268, "name": "ARIRANG-2 (KOMPSAT-2)", "group": "resource", "lat": -62.83662030964459, "lon": -159.2817299346831, "alt_km": 677.3242388413883, "timestamp": "2025-12-23T05:02:11.680117+00:00", "meta": {"OBJECT_NAME": "ARIRANG-2 (KOMPSAT-2)", "OBJECT_ID": "2006-031A", "EPOCH": "2025-12-22T23:28:55.259040", "MEAN_MOTION": 14.64502354, "ECCENTRICITY": 0.00131377, "INCLINATION": 97.8253, "RA_OF_ASC_NODE": 184.9521, "ARG_OF_PERICENTER": 273.9954, "MEAN_ANOMALY": 242.6307, "EPHEMERIS_TYPE": 0, "CLASSIFICATION_TYPE": "U", "NORAD_CAT_ID": 29268, "ELEMENT_SET_NO": 999, "REV_AT_EPOCH": 3568, "BSTAR": 8.7222985e-05, "MEAN_MOTION_DOT": 4.18e-06, "MEAN_MOTION_DDOT": 0}, "tle": {"line1": "1 29268U 06031A   25356.97841735  .00000418  00000+0  87223-4 0  9990", "line2": "2 29268  97.8253 184.9521 0013137 273.9954 242.6307 14.64502354 35687"}}, "geometry": {"type": "Point", "coordinates": [-159.2817299346831, -62.83662030964459]}}, {"type": "Feature", "properties": {"norad_id": 29709, "name": "LAPAN-TUBSAT", "group": "resource", "lat": -51.35070226032082, "lon": -2.12679282180043, "alt_km": 619.202701533759, "timestamp": "2025-12-23T05:02:11.680128+00:00", "meta": {"OBJECT_NAME": "LAPAN-TUBSAT", "OBJECT_ID": "2007-001A", "EPOCH": "2025-12-22T22:48:17.349120", "MEAN_MOTION": 14.85686783, "ECCENTRICITY": 0.00133399, "INCLINATION": 98.1257, "RA_OF_ASC_NODE": 347.3164, "ARG_OF_PERICENTER": 43.989, "MEAN_ANOMALY": 316.2384, "EPHEMERIS_TYPE": 0, "CLASSIFICATION_TYPE": "U", "NORAD_CAT_ID": 29709, "ELEMENT_SET_NO": 999, "REV_AT_EPOCH": 2498, "BSTAR": 0.00011866684, "MEAN_MOTION_DOT": 9.73e-06, "MEAN_MOTION_DDOT": 0}, "tle": {"line1": "1 29709U 07001A   25356.95020080  .00000973  00000+0  11867-3 0  9994", "line2": "2 29709  98.1257 347.3164 0013339  43.9890 316.2384 14.85686783 24987"}}, "geometry": {"type": "Point", "coordinates": [-2.12679282180043, -51.35070226032082]}}, {"type": "Feature", "properties": {"norad_id": 31113, "name": "HAIYANG-1B", "group": "resource", "lat": -64.70541175527802, "lon": -0.8773738381697646, "alt_km": 792.9759990497632, "timestamp": "2025-12-23T05:02:11.680138+00:00", "meta": {"OBJECT_NAME": "HAIYANG-1B", "OBJECT_ID": "2007-010A", "EPOCH": "2025-12-22T19:16:30.725760", "MEAN_MOTION": 14.30968154, "ECCENTRICITY": 0.00137274, "INCLINATION": 98.3326, "RA_OF_ASC_NODE": 340.6659, "ARG_OF_PERICENTER": 9.2481, "MEAN_ANOMALY": 350.8953, "EPHEMERIS_TYPE": 0, "CLASSIFICATION_TYPE": "U", "NORAD_CAT_ID": 31113, "ELEMENT_SET_NO": 999, "REV_AT_EPOCH": 97540, "BSTAR": 4.7986357e-05, "MEAN_MOTION_DOT": 8.5e-07, "MEAN_MOTION_DDOT": 0}, "tle": {"line1": "1 31113U 07010A   25356.80313340  .00000085  00000+0  47986-4 0  9990", "line2": "2 31113  98.3326 340.6659 0013727   9.2481 350.8953 14.30968154975408"}}, "geometry": {"type": "Point", "coordinates": [-0.8773738381697646, -64.70541175527802]}}, {"type": "Feature", "properties": {"norad_id": 31598, "name": "COSMO-SKYMED 1", "group": "resource", "lat": -73.01847781691338, "lon": -150.33642388541233, "alt_km": 587.9836543425645, "timestamp": "2025-12-23T05:02:11.680149+00:00", "meta": {"OBJECT_NAME": "COSMO-SKYMED 1", "OBJECT_ID": "2007-023A", "EPOCH": "2025-12-22T22:56:57.592032", "MEAN_MOTION": 14.95840531, "ECCENTRICITY": 0.00014525, "INCLINATION": 97.8839, "RA_OF_ASC_NODE": 182.4229, "ARG_OF_PERICENTER": 80.5183, "MEAN_ANOMALY": 279.6202, "EPHEMERIS_TYPE": 0, "CLASSIFICATION_TYPE": "U", "NORAD_CAT_ID": 31598, "ELEMENT_SET_NO": 999, "REV_AT_EPOCH": 343, "BSTAR": 0.00032072969, "MEAN_MOTION_DOT": 3.524e-05, "MEAN_MOTION_DDOT": 0}, "tle": {"line1": "1 31598U 07023A   25356.95622213  .00003524  00000+0  32073-3 0  9990", "line2": "2 31598  97.8839 182.4229 0001452  80.5183 279.6202 14.95840531  3435"}}, "geometry": {"type": "Point", "coordinates": [-150.33642388541233, -73.01847781691338]}}, {"type": "Feature", "properties": {"norad_id": 31698, "name": "TERRASAR-X", "group": "resource", "lat": 78.06624864404844, "lon": -139.33796341671473, "alt_km": 499.8179375349664, "timestamp": "2025-12-23T05:02:11.680159+00:00", "meta": {"OBJECT_NAME": "TERRASAR-X", "OBJECT_ID": "2007-026A", "EPOCH": "2025-12-22T11:12:42.874560", "MEAN_MOTION": 15.19156937, "ECCENTRICITY": 0.00019029, "INCLINATION": 97.4451, "RA_OF_ASC_NODE": 1.7062, "ARG_OF_PERICENTER": 89.1914, "MEAN_ANOMALY": 270.9539, "EPHEMERIS_TYPE": 0, "CLASSIFICATION_TYPE": "U", "NORAD_CAT_ID": 31698, "ELEMENT_SET_NO": 999, "REV_AT_EPOCH": 2639, "BSTAR": 3.1918703e-05, "MEAN_MOTION_DOT": 6.03e-06, "MEAN_MOTION_DDOT": 0}, "tle": {"line1": "1 31698U 07026A   25356.46716290  .00000603  00000+0  31919-4 0  9993", "line2": "2 31698  97.4451   1.7062 0001902  89.1914 270.9539 15.19156937 26391"}}, "geometry": {"type": "Point", "coordinates": [-139.33796341671473, 78.06624864404844]}}, {"type": "Feature", "properties": {"norad_id": 32060, "name": "WORLDVIEW-1 (WV-1)", "group": "resource", "lat": -58.74492588778075, "lon": 126.87460533964722, "alt_km": 500.1027264558925, "timestamp": "2025-12-23T05:02:11.680170+00:00", "meta": {"OBJECT_NAME": "WORLDVIEW-1 (WV-1)", "OBJECT_ID": "2007-041A", "EPOCH": "2025-12-22T19:50:30.984864", "MEAN_MOTION": 15.23913987, "ECCENTRICITY": 0.00033156, "INCLINATION": 97.3828, "RA_OF_ASC_NODE": 114.162, "ARG_OF_PERICENTER": 3.515, "MEAN_ANOMALY": 356.611, "EPHEMERIS_TYPE": 0, "CLASSIFICATION_TYPE": "U", "NORAD_CAT_ID": 32060, "ELEMENT_SET_NO": 999, "REV_AT_EPOCH": 1601, "BSTAR": 0.0003325578, "MEAN_MOTION_DOT": 7.967e-05, "MEAN_MOTION_DDOT": 0}, "tle": {"line1": "1 32060U 07041A   25356.82674751  .00007967  00000+0  33256-3 0  9994", "line2": "2 32060  97.3828 114.1620 0003315   3.5150 356.6110 15.23913987 16019"}}, "geometry": {"type": "Point", "coordinates": [126.87460533964722, -58.74492588778075]}}]}